[{"OBJECT_NAME":"GAOFEN DUOMO (GFDM)","OBJECT_ID":"2020-042A","EPOCH":"2026-03-09T22:46:55.447968","MEAN_MOTION":14.76842284,"ECCENTRICITY":0.00121367,"INCLINATION":97.7864,"RA_OF_ASC_NODE":132.3939,"ARG_OF_PERICENTER":38.3075,"MEAN_ANOMALY":321.8996,"EPHEMERIS_TYPE":0,"CLASSIFICATION_TYPE":"U","NORAD_CAT_ID":45856,"ELEMENT_SET_NO":999,"REV_AT_EPOCH":30636,"BSTAR":0.00021262668,"MEAN_MOTION_DOT":1.445e-5,"MEAN_MOTION_DDOT":0},{"OBJECT_NAME":"TITAN 3C TRANSTAGE DEB","OBJECT_ID":"1965-082H","EPOCH":"2026-03-09T13:21:20.248704","MEAN_MOTION":14.77322399,"ECCENTRICITY":0.00025781,"INCLINATION":32.3083,"RA_OF_ASC_NODE":235.0126,"ARG_OF_PERICENTER":57.2145,"MEAN_ANOMALY":302.8756,"EPHEMERIS_TYPE":0,"CLASSIFICATION_TYPE":"U","NORAD_CAT_ID":1646,"ELEMENT_SET_NO":999,"REV_AT_EPOCH":20543,"BSTAR":0.00022150083,"MEAN_MOTION_DOT":1.64e-5,"MEAN_MOTION_DDOT":0}]
